DUPLEX                  
1 66906U 98067XS  26101.18499504  .00026333  00000+0  34450-3 0  9992
2 66906  51.6282 266.6505 0003662 272.4776  87.5797 15.58423784 20197
ISS OBJECT XT           
1 66907U 98067XT  26100.48714641  .00337626  00000+0  14311-2 0  9990
2 66907  51.6205 261.9258 0008851 287.8570  72.1468 15.83816881 20190
ISS OBJECT XU           
1 66908U 98067XU  26100.73285086  .00324302  00000+0  13381-2 0  9998
2 66908  51.6204 260.5608 0008836 287.2119  72.7917 15.84417128 20232
SILVERSAT               
1 66909U 98067XV  26101.12879187  .00595148  15745-3  14760-2 0  9990
2 66909  51.6158 256.4188 0011792 298.6197  61.3624 15.95185191 20328
ISS OBJECT XW           
1 66910U 98067XW  26100.63683371  .00233282  00000+0  11321-2 0  9997
2 66910  51.6198 261.4188 0008695 283.5098  76.4935 15.81200748 20212
ISS OBJECT XX           
1 66911U 98067XX  26101.27422324  .05134528  12092-4  13439-2 0  9997
2 66911  51.6025 252.8006 0012992 302.3382  57.6380 16.27506238 20372
ISS OBJECT XY           
1 66912U 98067XY  26101.16676498  .00103702  00000+0  80031-3 0  9998
2 66912  51.6244 262.0063 0005834 283.1091  76.9256 15.71104492 20248
KNACKSAT-2              
1 67683U 98067XZ  26100.76917228  .00040625  00000+0  60488-3 0  9996
2 67683  51.6303 272.1258 0011027 306.0574  53.9395 15.54644225  9778
CORAL                   
1 67684U 98067YA  26100.72463346  .00091559  00000+0  10872-2 0  9993
2 67684  51.6280 271.0763 0014458 297.2912  62.6609 15.60291067  9785
GXIBA-1                 
1 67685U 98067YB  26100.75399066  .00044600  00000+0  64571-3 0  9995
2 67685  51.6298 272.0240 0013000 302.7798  57.1940 15.55339227  9773
UITMSAT-2               
1 67686U 98067YC  26101.17939142  .00046265  00000+0  63791-3 0  9990
2 67686  51.6296 269.6181 0009995 281.9734  78.0137 15.56684408  9847
HMU-SAT2                
1 67687U 98067YD  26100.76120092  .00043423  00000+0  63697-3 0  9999
2 67687  51.6324 272.0770 0009601 281.4397  78.5515 15.55037764  9690
LEOPARD                 
1 67688U 98067YE  26101.19050059  .00042070  00000+0  59405-3 0  9992
2 67688  51.6298 269.6924 0009636 282.2034  77.7878 15.56088072  9769
CREW DRAGON 12          
1 67796U 26031A   26101.16675691  .00005918  00000+0  11600-3 0  9991
2 67796  51.6326 271.7779 0006464 298.5374  61.4964 15.48869271561382
PROGRESS-MS 33          
1 68319U 26058A   26101.16675691  .00005918  00000+0  11600-3 0  9992
2 68319  51.6326 271.7779 0006464 298.5374  61.4964 15.48869271  2249
