[{"OBJECT_NAME":"DUPLEX","OBJECT_ID":"1998-067XS","EPOCH":"2026-04-11T04:26:23.571456","MEAN_MOTION":15.58423784,"ECCENTRICITY":0.00036629,"INCLINATION":51.6282,"RA_OF_ASC_NODE":266.6505,"ARG_OF_PERICENTER":272.4776,"MEAN_ANOMALY":87.5797,"EPHEMERIS_TYPE":0,"CLASSIFICATION_TYPE":"U","NORAD_CAT_ID":66906,"ELEMENT_SET_NO":999,"REV_AT_EPOCH":2019,"BSTAR":0.00034450189,"MEAN_MOTION_DOT":0.00026333,"MEAN_MOTION_DDOT":0},{"OBJECT_NAME":"ISS OBJECT XT","OBJECT_ID":"1998-067XT","EPOCH":"2026-04-10T11:41:29.449824","MEAN_MOTION":15.83816881,"ECCENTRICITY":0.00088519,"INCLINATION":51.6205,"RA_OF_ASC_NODE":261.9258,"ARG_OF_PERICENTER":287.857,"MEAN_ANOMALY":72.1468,"EPHEMERIS_TYPE":0,"CLASSIFICATION_TYPE":"U","NORAD_CAT_ID":66907,"ELEMENT_SET_NO":999,"REV_AT_EPOCH":2019,"BSTAR":0.0014311284,"MEAN_MOTION_DOT":0.00337626,"MEAN_MOTION_DDOT":0},{"OBJECT_NAME":"ISS OBJECT XU","OBJECT_ID":"1998-067XU","EPOCH":"2026-04-10T17:35:18.314304","MEAN_MOTION":15.84417128,"ECCENTRICITY":0.00088367,"INCLINATION":51.6204,"RA_OF_ASC_NODE":260.5608,"ARG_OF_PERICENTER":287.2119,"MEAN_ANOMALY":72.7917,"EPHEMERIS_TYPE":0,"CLASSIFICATION_TYPE":"U","NORAD_CAT_ID":66908,"ELEMENT_SET_NO":999,"REV_AT_EPOCH":2023,"BSTAR":0.0013381022,"MEAN_MOTION_DOT":0.00324302,"MEAN_MOTION_DDOT":0},{"OBJECT_NAME":"SILVERSAT","OBJECT_ID":"1998-067XV","EPOCH":"2026-04-11T03:05:27.617568","MEAN_MOTION":15.95185191,"ECCENTRICITY":0.00117926,"INCLINATION":51.6158,"RA_OF_ASC_NODE":256.4188,"ARG_OF_PERICENTER":298.6197,"MEAN_ANOMALY":61.3624,"EPHEMERIS_TYPE":0,"CLASSIFICATION_TYPE":"U","NORAD_CAT_ID":66909,"ELEMENT_SET_NO":999,"REV_AT_EPOCH":2032,"BSTAR":0.0014760481,"MEAN_MOTION_DOT":0.00595148,"MEAN_MOTION_DDOT":0.00015745167},{"OBJECT_NAME":"ISS OBJECT XW","OBJECT_ID":"1998-067XW","EPOCH":"2026-04-10T15:17:02.432544","MEAN_MOTION":15.81200748,"ECCENTRICITY":0.00086957,"INCLINATION":51.6198,"RA_OF_ASC_NODE":261.4188,"ARG_OF_PERICENTER":283.5098,"MEAN_ANOMALY":76.4935,"EPHEMERIS_TYPE":0,"CLASSIFICATION_TYPE":"U","NORAD_CAT_ID":66910,"ELEMENT_SET_NO":999,"REV_AT_EPOCH":2021,"BSTAR":0.0011321241,"MEAN_MOTION_DOT":0.00233282,"MEAN_MOTION_DDOT":0},{"OBJECT_NAME":"ISS OBJECT XX","OBJECT_ID":"1998-067XX","EPOCH":"2026-04-11T06:34:52.887936","MEAN_MOTION":16.27506238,"ECCENTRICITY":0.00129929,"INCLINATION":51.6025,"RA_OF_ASC_NODE":252.8006,"ARG_OF_PERICENTER":302.3382,"MEAN_ANOMALY":57.638,"EPHEMERIS_TYPE":0,"CLASSIFICATION_TYPE":"U","NORAD_CAT_ID":66911,"ELEMENT_SET_NO":999,"REV_AT_EPOCH":2037,"BSTAR":0.0013439417,"MEAN_MOTION_DOT":0.05134528,"MEAN_MOTION_DDOT":1.2092209e-5},{"OBJECT_NAME":"ISS OBJECT XY","OBJECT_ID":"1998-067XY","EPOCH":"2026-04-11T04:00:08.494272","MEAN_MOTION":15.71104492,"ECCENTRICITY":0.00058345,"INCLINATION":51.6244,"RA_OF_ASC_NODE":262.0063,"ARG_OF_PERICENTER":283.1091,"MEAN_ANOMALY":76.9256,"EPHEMERIS_TYPE":0,"CLASSIFICATION_TYPE":"U","NORAD_CAT_ID":66912,"ELEMENT_SET_NO":999,"REV_AT_EPOCH":2024,"BSTAR":0.00080030653,"MEAN_MOTION_DOT":0.00103702,"MEAN_MOTION_DDOT":0},{"OBJECT_NAME":"KNACKSAT-2","OBJECT_ID":"1998-067XZ","EPOCH":"2026-04-10T18:27:36.484992","MEAN_MOTION":15.54644225,"ECCENTRICITY":0.00110273,"INCLINATION":51.6303,"RA_OF_ASC_NODE":272.1258,"ARG_OF_PERICENTER":306.0574,"MEAN_ANOMALY":53.9395,"EPHEMERIS_TYPE":0,"CLASSIFICATION_TYPE":"U","NORAD_CAT_ID":67683,"ELEMENT_SET_NO":999,"REV_AT_EPOCH":977,"BSTAR":0.00060487757,"MEAN_MOTION_DOT":0.00040625,"MEAN_MOTION_DDOT":0},{"OBJECT_NAME":"CORAL","OBJECT_ID":"1998-067YA","EPOCH":"2026-04-10T17:23:28.330944","MEAN_MOTION":15.60291067,"ECCENTRICITY":0.00144588,"INCLINATION":51.628,"RA_OF_ASC_NODE":271.0763,"ARG_OF_PERICENTER":297.2912,"MEAN_ANOMALY":62.6609,"EPHEMERIS_TYPE":0,"CLASSIFICATION_TYPE":"U","NORAD_CAT_ID":67684,"ELEMENT_SET_NO":999,"REV_AT_EPOCH":978,"BSTAR":0.0010871878,"MEAN_MOTION_DOT":0.00091559,"MEAN_MOTION_DDOT":0},{"OBJECT_NAME":"GXIBA-1","OBJECT_ID":"1998-067YB","EPOCH":"2026-04-10T18:05:44.793024","MEAN_MOTION":15.55339227,"ECCENTRICITY":0.00130003,"INCLINATION":51.6298,"RA_OF_ASC_NODE":272.024,"ARG_OF_PERICENTER":302.7798,"MEAN_ANOMALY":57.194,"EPHEMERIS_TYPE":0,"CLASSIFICATION_TYPE":"U","NORAD_CAT_ID":67685,"ELEMENT_SET_NO":999,"REV_AT_EPOCH":977,"BSTAR":0.00064571287,"MEAN_MOTION_DOT":0.000446,"MEAN_MOTION_DDOT":0},{"OBJECT_NAME":"UITMSAT-2","OBJECT_ID":"1998-067YC","EPOCH":"2026-04-11T04:18:19.418688","MEAN_MOTION":15.56684408,"ECCENTRICITY":0.00099952,"INCLINATION":51.6296,"RA_OF_ASC_NODE":269.6181,"ARG_OF_PERICENTER":281.9734,"MEAN_ANOMALY":78.0137,"EPHEMERIS_TYPE":0,"CLASSIFICATION_TYPE":"U","NORAD_CAT_ID":67686,"ELEMENT_SET_NO":999,"REV_AT_EPOCH":984,"BSTAR":0.00063790923,"MEAN_MOTION_DOT":0.00046265,"MEAN_MOTION_DDOT":0},{"OBJECT_NAME":"HMU-SAT2","OBJECT_ID":"1998-067YD","EPOCH":"2026-04-10T18:16:07.759488","MEAN_MOTION":15.55037764,"ECCENTRICITY":0.00096019,"INCLINATION":51.6324,"RA_OF_ASC_NODE":272.077,"ARG_OF_PERICENTER":281.4397,"MEAN_ANOMALY":78.5515,"EPHEMERIS_TYPE":0,"CLASSIFICATION_TYPE":"U","NORAD_CAT_ID":67687,"ELEMENT_SET_NO":999,"REV_AT_EPOCH":969,"BSTAR":0.00063697212,"MEAN_MOTION_DOT":0.00043423,"MEAN_MOTION_DDOT":0},{"OBJECT_NAME":"LEOPARD","OBJECT_ID":"1998-067YE","EPOCH":"2026-04-11T04:34:19.250976","MEAN_MOTION":15.56088072,"ECCENTRICITY":0.00096365,"INCLINATION":51.6298,"RA_OF_ASC_NODE":269.6924,"ARG_OF_PERICENTER":282.2034,"MEAN_ANOMALY":77.7878,"EPHEMERIS_TYPE":0,"CLASSIFICATION_TYPE":"U","NORAD_CAT_ID":67688,"ELEMENT_SET_NO":999,"REV_AT_EPOCH":976,"BSTAR":0.00059404927,"MEAN_MOTION_DOT":0.0004207,"MEAN_MOTION_DDOT":0},{"OBJECT_NAME":"CREW DRAGON 12","OBJECT_ID":"2026-031A","EPOCH":"2026-04-11T04:00:07.797024","MEAN_MOTION":15.48869271,"ECCENTRICITY":0.00064647,"INCLINATION":51.6326,"RA_OF_ASC_NODE":271.7779,"ARG_OF_PERICENTER":298.5374,"MEAN_ANOMALY":61.4964,"EPHEMERIS_TYPE":0,"CLASSIFICATION_TYPE":"U","NORAD_CAT_ID":67796,"ELEMENT_SET_NO":999,"REV_AT_EPOCH":56138,"BSTAR":0.00011599994,"MEAN_MOTION_DOT":5.918e-5,"MEAN_MOTION_DDOT":0},{"OBJECT_NAME":"PROGRESS-MS 33","OBJECT_ID":"2026-058A","EPOCH":"2026-04-11T04:00:07.797024","MEAN_MOTION":15.48869271,"ECCENTRICITY":0.00064647,"INCLINATION":51.6326,"RA_OF_ASC_NODE":271.7779,"ARG_OF_PERICENTER":298.5374,"MEAN_ANOMALY":61.4964,"EPHEMERIS_TYPE":0,"CLASSIFICATION_TYPE":"U","NORAD_CAT_ID":68319,"ELEMENT_SET_NO":999,"REV_AT_EPOCH":224,"BSTAR":0.00011599994,"MEAN_MOTION_DOT":5.918e-5,"MEAN_MOTION_DDOT":0}]
